ONEWEB-0128             
1 47274U 20100S   24246.89823696 -.00000024  00000+0 -10337-3 0  9990
2 47274  87.8910 120.6008 0001577  86.1992 273.9317 13.12440197179181
ONEWEB-0129             
1 47275U 20100T   24246.95340346  .00000530  00000+0  14376-2 0  9990
2 47275  87.8901 120.5517 0003295  93.0448 267.1057 13.12441011179124
ONEWEB-0130             
1 47276U 20100U   24246.90472516 -.00000264  00000+0 -77031-3 0  9995
2 47276  87.8901 120.5677 0001804  83.5754 276.5580 13.12440168179082
ONEWEB-0131             
1 47277U 20100V   24246.90147945 -.00000149  00000+0 -44929-3 0  9993
2 47277  87.8903 120.5855 0001682  82.0572 278.0748 13.12440309179124
ONEWEB-0132             
1 47278U 20100W   24246.93068959  .00000087  00000+0  20634-3 0  9990
2 47278  87.8904 120.5816 0001533  72.4259 287.7037 13.12443595179020
ONEWEB-0133             
1 47279U 20100X   24246.94690093  .00000547  00000+0  14855-2 0  9990
2 47279  87.8898 120.5726 0001633  79.8414 280.2898 13.12444436179183
ONEWEB-0134             
1 47280U 20100Y   24246.91610600 -.00000184  00000+0 -54779-3 0  9994
2 47280  87.8895 120.5655 0001774  87.7896 272.3436 13.12441691179158
ONEWEB-0135             
1 47281U 20100Z   24247.19183416  .00000367  00000+0  98548-3 0  9999
2 47281  87.8901 120.5316 0001532  95.6279 264.5024 13.12443349179211
